{"epoch":1784710044,"count":18256,"objects":[{"id":"63695","name":"HULIANWANG DIGUI-28","type":"PAYLOAD","l1":"1 63695U 25086J   26202.61827159  .00000061  00000-0  10702-3 0  9991","l2":"2 63695  86.5020 301.3328 0002195 109.6149 250.5222 13.24411323 59410"},{"id":"63696","name":"HULIANWANG DIGUI-29","type":"PAYLOAD","l1":"1 63696U 25086K   26202.61074899  .00000069  00000-0  12717-3 0  9993","l2":"2 63696  86.5047 301.4526 0002076 112.6224 247.5130 13.24411681 59418"},{"id":"64283","name":"HULIANWANG DIGUI-30","type":"PAYLOAD","l1":"1 64283U 25121A   26202.54264835  .00000057  00000-0  98079-4 0  9992","l2":"2 64283  86.5003   1.9638 0001908  88.9838 271.1515 13.24409634 54700"},{"id":"64284","name":"HULIANWANG DIGUI-31","type":"PAYLOAD","l1":"1 64284U 25121B   26202.61066988  .00000044  00000-0  69306-4 0  9997","l2":"2 64284  86.5023   2.0187 0001901  89.3636 270.7716 13.24414583 54716"},{"id":"64285","name":"HULIANWANG DIGUI-32","type":"PAYLOAD","l1":"1 64285U 25121C   26202.60299104  .00000030  00000-0  35743-4 0  9998","l2":"2 64285  86.4965   1.7724 0001897  93.8797 266.2554 13.24410440 54714"},{"id":"64286","name":"HULIANWANG DIGUI-33","type":"PAYLOAD","l1":"1 64286U 25121D   26202.67099207  .00000020  00000-0  12829-4 0  9997","l2":"2 64286  86.5022   1.9817 0001916  89.7623 270.3730 13.24410073 54724"},{"id":"64287","name":"HULIANWANG DIGUI-34","type":"PAYLOAD","l1":"1 64287U 25121E   26202.58792294  .00000030  00000-0  36456-4 0  9997","l2":"2 64287  86.5000   1.9119 0002031  81.1435 278.9929 13.24410834 54710"},{"id":"64956","name":"HULIANWANG DIGUI-35","type":"PAYLOAD","l1":"1 64956U 25159A   26202.62585540  .00000015  00000-0  10024-5 0  9997","l2":"2 64956  86.4933 270.7961 0004156  53.7019 306.4498 13.24413490 47688"},{"id":"64957","name":"HULIANWANG DIGUI-36","type":"PAYLOAD","l1":"1 64957U 25159B   26202.62196574  .00000025  00000-0  24042-4 0  9998","l2":"2 64957  86.4953 270.8643 0001684 104.5450 255.5871 13.24408949 47688"},{"id":"64958","name":"HULIANWANG DIGUI-37","type":"PAYLOAD","l1":"1 64958U 25159C   26202.61439181  .00000039  00000-0  56629-4 0  9993","l2":"2 64958  86.4894 270.6507 0001779  99.2096 260.9240 13.24409668 47680"},{"id":"64959","name":"HULIANWANG DIGUI-38","type":"PAYLOAD","l1":"1 64959U 25159D   26202.60687421  .00000048  00000-0  76624-4 0  9992","l2":"2 64959  86.4953 270.8572 0001841  99.3536 260.7806 13.24409337 47680"},{"id":"64960","name":"HULIANWANG DIGUI-39","type":"PAYLOAD","l1":"1 64960U 25159E   26202.59930721  .00000051  00000-0  85252-4 0  9997","l2":"2 64960  86.4928 270.7673 0001833 102.4721 257.6618 13.24409203 47686"},{"id":"65043","name":"HULIANWANG DIGUI-40","type":"PAYLOAD","l1":"1 65043U 25162A   26202.59830408 -.00000092  00000-0  69530-4 0  9992","l2":"2 65043  49.9988 142.5116 0000273 348.8705  11.2161 13.29327575 47922"},{"id":"65044","name":"HULIANWANG DIGUI-41","type":"PAYLOAD","l1":"1 65044U 25162B   26202.58996962 -.00000097  00000-0  58398-4 0  9995","l2":"2 65044  49.9998 142.4962 0000273   2.6660 357.4214 13.29327101 47937"},{"id":"65045","name":"HULIANWANG DIGUI-42","type":"PAYLOAD","l1":"1 65045U 25162C   26202.58154654 -.00000087  00000-0  80039-4 0  9996","l2":"2 65045  49.9963 142.3546 0000265 353.4733   6.6135 13.29327799 47934"},{"id":"65046","name":"HULIANWANG DIGUI-43","type":"PAYLOAD","l1":"1 65046U 25162D   26202.57323744 -.00000088  00000-0  76815-4 0  9992","l2":"2 65046  49.9981 142.3611 0000328 345.8156  14.2707 13.29326410 47931"}]}