{"fetched_at":"2026-07-22T07:09:47.414Z","source":"https://celestrak.org/NORAD/elements/gp.php?NAME=HULIANWANG&FORMAT=JSON","constellation":"guowang","records":[{"OBJECT_NAME":"HULIANWANG DIGUI-28","OBJECT_ID":"2025-086J","EPOCH":"2026-07-21T14:50:18.665376","CLASSIFICATION_TYPE":"U","MEAN_MOTION":13.24411323,"ECCENTRICITY":0.00021948,"INCLINATION":86.502,"RA_OF_ASC_NODE":301.3328,"ARG_OF_PERICENTER":109.6149,"MEAN_ANOMALY":250.5222,"EPHEMERIS_TYPE":0,"NORAD_CAT_ID":63695,"ELEMENT_SET_NO":999,"REV_AT_EPOCH":5941,"BSTAR":0.00010701581,"MEAN_MOTION_DOT":6.1e-7,"MEAN_MOTION_DDOT":0},{"OBJECT_NAME":"HULIANWANG DIGUI-29","OBJECT_ID":"2025-086K","EPOCH":"2026-07-21T14:39:28.712736","CLASSIFICATION_TYPE":"U","MEAN_MOTION":13.24411681,"ECCENTRICITY":0.00020764,"INCLINATION":86.5047,"RA_OF_ASC_NODE":301.4526,"ARG_OF_PERICENTER":112.6224,"MEAN_ANOMALY":247.513,"EPHEMERIS_TYPE":0,"NORAD_CAT_ID":63696,"ELEMENT_SET_NO":999,"REV_AT_EPOCH":5941,"BSTAR":0.0001271683,"MEAN_MOTION_DOT":6.9e-7,"MEAN_MOTION_DDOT":0},{"OBJECT_NAME":"HULIANWANG DIGUI-30","OBJECT_ID":"2025-121A","EPOCH":"2026-07-21T13:01:24.817440","CLASSIFICATION_TYPE":"U","MEAN_MOTION":13.24409634,"ECCENTRICITY":0.00019082,"INCLINATION":86.5003,"RA_OF_ASC_NODE":1.9638,"ARG_OF_PERICENTER":88.9838,"MEAN_ANOMALY":271.1515,"EPHEMERIS_TYPE":0,"NORAD_CAT_ID":64283,"ELEMENT_SET_NO":999,"REV_AT_EPOCH":5470,"BSTAR":0.000098078591,"MEAN_MOTION_DOT":5.7e-7,"MEAN_MOTION_DDOT":0},{"OBJECT_NAME":"HULIANWANG DIGUI-31","OBJECT_ID":"2025-121B","EPOCH":"2026-07-21T14:39:21.877632","CLASSIFICATION_TYPE":"U","MEAN_MOTION":13.24414583,"ECCENTRICITY":0.00019007,"INCLINATION":86.5023,"RA_OF_ASC_NODE":2.0187,"ARG_OF_PERICENTER":89.3636,"MEAN_ANOMALY":270.7716,"EPHEMERIS_TYPE":0,"NORAD_CAT_ID":64284,"ELEMENT_SET_NO":999,"REV_AT_EPOCH":5471,"BSTAR":0.000069306184,"MEAN_MOTION_DOT":4.4e-7,"MEAN_MOTION_DDOT":0},{"OBJECT_NAME":"HULIANWANG DIGUI-32","OBJECT_ID":"2025-121C","EPOCH":"2026-07-21T14:28:18.425856","CLASSIFICATION_TYPE":"U","MEAN_MOTION":13.2441044,"ECCENTRICITY":0.00018967,"INCLINATION":86.4965,"RA_OF_ASC_NODE":1.7724,"ARG_OF_PERICENTER":93.8797,"MEAN_ANOMALY":266.2554,"EPHEMERIS_TYPE":0,"NORAD_CAT_ID":64285,"ELEMENT_SET_NO":999,"REV_AT_EPOCH":5471,"BSTAR":0.000035742572,"MEAN_MOTION_DOT":3e-7,"MEAN_MOTION_DDOT":0},{"OBJECT_NAME":"HULIANWANG DIGUI-33","OBJECT_ID":"2025-121D","EPOCH":"2026-07-21T16:06:13.714848","CLASSIFICATION_TYPE":"U","MEAN_MOTION":13.24410073,"ECCENTRICITY":0.0001916,"INCLINATION":86.5022,"RA_OF_ASC_NODE":1.9817,"ARG_OF_PERICENTER":89.7623,"MEAN_ANOMALY":270.373,"EPHEMERIS_TYPE":0,"NORAD_CAT_ID":64286,"ELEMENT_SET_NO":999,"REV_AT_EPOCH":5472,"BSTAR":0.000012829167,"MEAN_MOTION_DOT":2e-7,"MEAN_MOTION_DDOT":0},{"OBJECT_NAME":"HULIANWANG DIGUI-34","OBJECT_ID":"2025-121E","EPOCH":"2026-07-21T14:06:36.542016","CLASSIFICATION_TYPE":"U","MEAN_MOTION":13.24410834,"ECCENTRICITY":0.00020311,"INCLINATION":86.5,"RA_OF_ASC_NODE":1.9119,"ARG_OF_PERICENTER":81.1435,"MEAN_ANOMALY":278.9929,"EPHEMERIS_TYPE":0,"NORAD_CAT_ID":64287,"ELEMENT_SET_NO":999,"REV_AT_EPOCH":5471,"BSTAR":0.000036456161,"MEAN_MOTION_DOT":3e-7,"MEAN_MOTION_DDOT":0},{"OBJECT_NAME":"HULIANWANG DIGUI-35","OBJECT_ID":"2025-159A","EPOCH":"2026-07-21T15:01:13.906560","CLASSIFICATION_TYPE":"U","MEAN_MOTION":13.2441349,"ECCENTRICITY":0.00041564,"INCLINATION":86.4933,"RA_OF_ASC_NODE":270.7961,"ARG_OF_PERICENTER":53.7019,"MEAN_ANOMALY":306.4498,"EPHEMERIS_TYPE":0,"NORAD_CAT_ID":64956,"ELEMENT_SET_NO":999,"REV_AT_EPOCH":4768,"BSTAR":0.00000100235,"MEAN_MOTION_DOT":1.5e-7,"MEAN_MOTION_DDOT":0},{"OBJECT_NAME":"HULIANWANG DIGUI-36","OBJECT_ID":"2025-159B","EPOCH":"2026-07-21T14:55:37.839936","CLASSIFICATION_TYPE":"U","MEAN_MOTION":13.24408949,"ECCENTRICITY":0.00016837,"INCLINATION":86.4953,"RA_OF_ASC_NODE":270.8643,"ARG_OF_PERICENTER":104.545,"MEAN_ANOMALY":255.5871,"EPHEMERIS_TYPE":0,"NORAD_CAT_ID":64957,"ELEMENT_SET_NO":999,"REV_AT_EPOCH":4768,"BSTAR":0.000024042301,"MEAN_MOTION_DOT":2.5e-7,"MEAN_MOTION_DDOT":0},{"OBJECT_NAME":"HULIANWANG DIGUI-37","OBJECT_ID":"2025-159C","EPOCH":"2026-07-21T14:44:43.452384","CLASSIFICATION_TYPE":"U","MEAN_MOTION":13.24409668,"ECCENTRICITY":0.00017789,"INCLINATION":86.4894,"RA_OF_ASC_NODE":270.6507,"ARG_OF_PERICENTER":99.2096,"MEAN_ANOMALY":260.924,"EPHEMERIS_TYPE":0,"NORAD_CAT_ID":64958,"ELEMENT_SET_NO":999,"REV_AT_EPOCH":4768,"BSTAR":0.000056628755,"MEAN_MOTION_DOT":3.9e-7,"MEAN_MOTION_DDOT":0},{"OBJECT_NAME":"HULIANWANG DIGUI-38","OBJECT_ID":"2025-159D","EPOCH":"2026-07-21T14:33:53.931744","CLASSIFICATION_TYPE":"U","MEAN_MOTION":13.24409337,"ECCENTRICITY":0.00018411,"INCLINATION":86.4953,"RA_OF_ASC_NODE":270.8572,"ARG_OF_PERICENTER":99.3536,"MEAN_ANOMALY":260.7806,"EPHEMERIS_TYPE":0,"NORAD_CAT_ID":64959,"ELEMENT_SET_NO":999,"REV_AT_EPOCH":4768,"BSTAR":0.00007662381,"MEAN_MOTION_DOT":4.8e-7,"MEAN_MOTION_DDOT":0},{"OBJECT_NAME":"HULIANWANG DIGUI-39","OBJECT_ID":"2025-159E","EPOCH":"2026-07-21T14:23:00.142944","CLASSIFICATION_TYPE":"U","MEAN_MOTION":13.24409203,"ECCENTRICITY":0.00018333,"INCLINATION":86.4928,"RA_OF_ASC_NODE":270.7673,"ARG_OF_PERICENTER":102.4721,"MEAN_ANOMALY":257.6618,"EPHEMERIS_TYPE":0,"NORAD_CAT_ID":64960,"ELEMENT_SET_NO":999,"REV_AT_EPOCH":4768,"BSTAR":0.000085251876,"MEAN_MOTION_DOT":5.1e-7,"MEAN_MOTION_DDOT":0},{"OBJECT_NAME":"HULIANWANG DIGUI-40","OBJECT_ID":"2025-162A","EPOCH":"2026-07-21T14:21:33.472512","CLASSIFICATION_TYPE":"U","MEAN_MOTION":13.29327575,"ECCENTRICITY":0.00002727,"INCLINATION":49.9988,"RA_OF_ASC_NODE":142.5116,"ARG_OF_PERICENTER":348.8705,"MEAN_ANOMALY":11.2161,"EPHEMERIS_TYPE":0,"NORAD_CAT_ID":65043,"ELEMENT_SET_NO":999,"REV_AT_EPOCH":4792,"BSTAR":0.000069530189,"MEAN_MOTION_DOT":-9.2e-7,"MEAN_MOTION_DDOT":0},{"OBJECT_NAME":"HULIANWANG DIGUI-41","OBJECT_ID":"2025-162B","EPOCH":"2026-07-21T14:09:33.375168","CLASSIFICATION_TYPE":"U","MEAN_MOTION":13.29327101,"ECCENTRICITY":0.00002734,"INCLINATION":49.9998,"RA_OF_ASC_NODE":142.4962,"ARG_OF_PERICENTER":2.666,"MEAN_ANOMALY":357.4214,"EPHEMERIS_TYPE":0,"NORAD_CAT_ID":65044,"ELEMENT_SET_NO":999,"REV_AT_EPOCH":4793,"BSTAR":0.000058397541,"MEAN_MOTION_DOT":-9.7e-7,"MEAN_MOTION_DDOT":0},{"OBJECT_NAME":"HULIANWANG DIGUI-42","OBJECT_ID":"2025-162C","EPOCH":"2026-07-21T13:57:25.621056","CLASSIFICATION_TYPE":"U","MEAN_MOTION":13.29327799,"ECCENTRICITY":0.00002652,"INCLINATION":49.9963,"RA_OF_ASC_NODE":142.3546,"ARG_OF_PERICENTER":353.4733,"MEAN_ANOMALY":6.6135,"EPHEMERIS_TYPE":0,"NORAD_CAT_ID":65045,"ELEMENT_SET_NO":999,"REV_AT_EPOCH":4793,"BSTAR":0.000080038584,"MEAN_MOTION_DOT":-8.7e-7,"MEAN_MOTION_DDOT":0},{"OBJECT_NAME":"HULIANWANG DIGUI-43","OBJECT_ID":"2025-162D","EPOCH":"2026-07-21T13:45:27.714816","CLASSIFICATION_TYPE":"U","MEAN_MOTION":13.2932641,"ECCENTRICITY":0.0000328,"INCLINATION":49.9981,"RA_OF_ASC_NODE":142.3611,"ARG_OF_PERICENTER":345.8156,"MEAN_ANOMALY":14.2707,"EPHEMERIS_TYPE":0,"NORAD_CAT_ID":65046,"ELEMENT_SET_NO":999,"REV_AT_EPOCH":4793,"BSTAR":0.000076814562,"MEAN_MOTION_DOT":-8.8e-7,"MEAN_MOTION_DDOT":0}]}
